sat04856
1 04856U 70025EL  20046.67503841  .00000056  00000-0  56304-4 0  9996
2 04856  99.7285 310.4667 0157693 173.0564 187.2839 14.07611250544692
